NORAD_CAT_ID,OBJECT_NAME,OBJECT_TYPE,EPOCH,MEAN_MOTION,ECCENTRICITY,INCLINATION,RA_OF_ASC_NODE,ARG_OF_PERICENTER,MEAN_ANOMALY,BSTAR,MEAN_MOTION_DOT,MEAN_MOTION_DDOT,TLE_LINE0,TLE_LINE1,TLE_LINE2,SEMIMAJOR_AXIS,PERIOD,APOGEE,PERIGEE,DECAYED
52611.0,STARLINK-3980,PAYLOAD,2023-10-07 01:02:04,15.08844154,0.0001961,53.2159,295.4569,89.9343,270.1874,0.00065766,0.00010195,0.0,0 STARLINK-3980,1 52611U 22052P   23280.04311194  .00010195  00000-0  65766-3 0  9993,2 52611  53.2159 295.4569 0001961  89.9343 270.1874 15.08844154 77604,6917.868,95.437,541.089,538.376,0.0
52611.0,STARLINK-3980,PAYLOAD,2023-10-07 07:23:37,15.08844294,0.0001901,53.2155,294.2661,92.597,267.524,0.0003432,5.179e-05,0.0,0 STARLINK-3980,1 52611U 22052P   23280.30807084  .00005179  00000-0  34320-3 0  9998,2 52611  53.2155 294.2661 0001901  92.5970 267.5240 15.08844294 77275,6917.867,95.437,541.047,538.417,0.0
52611.0,STARLINK-3980,PAYLOAD,2023-10-08 00:52:52,15.0883888,0.0001914,53.2155,290.9966,87.905,272.2161,0.00015161,2.125e-05,0.0,0 STARLINK-3980,1 52611U 22052P   23281.03671415  .00002125  00000-0  15161-3 0  9996,2 52611  53.2155 290.9966 0001914  87.9050 272.2161 15.08838880 77759,6917.884,95.438,541.073,538.425,0.0
52611.0,STARLINK-3980,PAYLOAD,2023-10-08 12:00:33,15.08848541,0.0001878,53.2164,288.912,94.0895,266.0312,0.00020352,2.953e-05,0.0,0 STARLINK-3980,1 52611U 22052P   23281.50039024  .00002953  00000-0  20352-3 0  9999,2 52611  53.2164 288.9120 0001878  94.0895 266.0312 15.08848541 77454,6917.854,95.437,541.018,538.42,0.0
52611.0,STARLINK-3980,PAYLOAD,2023-10-09 07:05:11,15.08849421,0.0001857,53.2158,285.3471,82.9819,277.1384,0.00023087,3.389e-05,0.0,0 STARLINK-3980,1 52611U 22052P   23282.29527003  .00003389  00000-0  23087-3 0  9997,2 52611  53.2158 285.3471 0001857  82.9819 277.1384 15.08849421 77940,6917.852,95.437,541.001,538.432,0.0
52611.0,STARLINK-3980,PAYLOAD,2023-10-09 11:51:20,15.08858489,0.0001973,53.2153,284.4497,106.912,253.2089,0.00030096,4.507e-05,0.0,0 STARLINK-3980,1 52611U 22052P   23282.49398244  .00004507  00000-0  30096-3 0  9993,2 52611  53.2153 284.4497 0001973 106.9120 253.2089 15.08858489 77608,6917.824,95.436,541.054,538.324,0.0
52611.0,STARLINK-3980,PAYLOAD,2023-10-10 00:34:26,15.08835701,0.0001618,53.2164,282.0731,103.1658,256.9515,-7.2065e-05,-1.435e-05,0.0,0 STARLINK-3980,1 52611U 22052P   23283.02391293 -.00001435  00000-0 -72065-4 0  9992,2 52611  53.2164 282.0731 0001618 103.1658 256.9515 15.08835701 78052,6917.894,95.438,540.878,538.639,0.0
52611.0,STARLINK-3980,PAYLOAD,2023-10-10 06:55:58,15.08851228,0.0001922,53.2159,280.8843,96.5826,263.5385,0.00047758,7.323e-05,0.0,0 STARLINK-3980,1 52611U 22052P   23283.28887000  .00007323  00000-0  47758-3 0  9996,2 52611  53.2159 280.8843 0001922  96.5826 263.5385 15.08851228 78091,6917.846,95.437,541.041,538.381,0.0
52611.0,STARLINK-3980,PAYLOAD,2023-10-10 11:42:07,15.08860335,0.0001912,53.216,279.9915,110.1117,250.0082,0.0010753,0.00016876,0.0,0 STARLINK-3980,1 52611U 22052P   23283.48758735  .00016876  00000-0  10753-2 0  9997,2 52611  53.2160 279.9915 0001912 110.1117 250.0082 15.08860335 77753,6917.818,95.436,541.006,538.361,0.0
52611.0,STARLINK-3980,PAYLOAD,2023-10-10 16:28:17,15.08830284,0.0002758,53.2159,279.0996,85.4313,274.6994,0.00017286,2.463e-05,0.0,0 STARLINK-3980,1 52611U 22052P   23283.68631845  .00002463  00000-0  17286-3 0  9997,2 52611  53.2159 279.0996 0002758  85.4313 274.6994 15.08830284 78151,6917.91,95.438,541.683,537.867,0.0
52611.0,STARLINK-3980,PAYLOAD,2023-10-11 09:57:32,15.08837163,0.0001981,53.2162,275.8302,103.4967,256.6246,0.00084499,0.00013185,0.0,0 STARLINK-3980,1 52611U 22052P   23284.41495966  .00013185  00000-0  84499-3 0  9994,2 52611  53.2162 275.8302 0001981 103.4967 256.6246 15.08837163 77896,6917.889,95.438,541.124,538.384,0.0
52611.0,STARLINK-3980,PAYLOAD,2023-10-12 05:02:10,15.08841445,0.0001902,53.216,272.2605,94.9926,265.1284,0.00076034,0.00011834,0.0,0 STARLINK-3980,1 52611U 22052P   23285.20984380  .00011834  00000-0  76034-3 0  9990,2 52611  53.2160 272.2605 0001902  94.9926 265.1284 15.08841445 78383,6917.876,95.437,541.057,538.425,0.0
52611.0,STARLINK-3980,PAYLOAD,2023-10-12 06:37:33,15.08845958,0.0001855,53.2158,271.9629,96.1499,263.9705,0.00060999,9.435e-05,0.0,0 STARLINK-3980,1 52611U 22052P   23285.27608256  .00009435  00000-0  60999-3 0  9999,2 52611  53.2158 271.9629 0001855  96.1499 263.9705 15.08845958 78026,6917.862,95.437,541.01,538.444,0.0
52611.0,STARLINK-3980,PAYLOAD,2023-10-12 16:09:52,15.08851362,0.0001844,53.2149,270.1777,83.5521,276.5681,0.00071519,0.00011116,0.0,0 STARLINK-3980,1 52611U 22052P   23285.67352207  .00011116  00000-0  71519-3 0  9994,2 52611  53.2149 270.1777 0001844  83.5521 276.5681 15.08851362 78080,6917.846,95.437,540.986,538.435,0.0
52611.0,STARLINK-3980,PAYLOAD,2023-10-13 04:52:57,15.08842734,0.0002098,53.2157,267.8001,88.4208,271.7025,0.00030197,4.521e-05,0.0,0 STARLINK-3980,1 52611U 22052P   23286.20344312  .00004521  00000-0  30197-3 0  9991,2 52611  53.2157 267.8001 0002098  88.4208 271.7025 15.08842734 78532,6917.872,95.437,541.188,538.286,0.0
52611.0,STARLINK-3980,PAYLOAD,2023-10-13 08:03:43,15.08844923,0.0001976,53.2157,267.2038,86.0053,274.1165,0.00027371,4.071e-05,0.0,0 STARLINK-3980,1 52611U 22052P   23286.33592202  .00004071  00000-0  27371-3 0  9998,2 52611  53.2157 267.2038 0001976  86.0053 274.1165 15.08844923 78187,6917.865,95.437,541.097,538.363,0.0
52611.0,STARLINK-3980,PAYLOAD,2023-10-13 16:00:39,15.08843527,0.000192,53.2155,265.7172,85.1103,275.0108,0.00018911,2.723e-05,0.0,0 STARLINK-3980,1 52611U 22052P   23286.66712271  .00002723  00000-0  18911-3 0  9996,2 52611  53.2155 265.7172 0001920  85.1103 275.0108 15.08843527 78234,6917.87,95.437,541.063,538.406,0.0
52611.0,STARLINK-3980,PAYLOAD,2023-10-14 06:19:07,15.08853941,0.0001908,53.2164,263.0405,86.2033,273.9178,0.00031302,4.699e-05,0.0,0 STARLINK-3980,1 52611U 22052P   23287.26327721  .00004699  00000-0  31302-3 0  9998,2 52611  53.2164 263.0405 0001908  86.2033 273.9178 15.08853941 78699,6917.838,95.437,541.023,538.383,0.0
52611.0,STARLINK-3980,PAYLOAD,2023-10-14 15:51:26,15.08842961,0.0001858,53.2166,261.256,88.6785,271.442,6.5488e-05,7.54e-06,0.0,0 STARLINK-3980,1 52611U 22052P   23287.66072031  .00000754  00000-0  65488-4 0  9994,2 52611  53.2166 261.2560 0001858  88.6785 271.4420 15.08842961 78757,6917.871,95.437,541.022,538.451,0.0
52611.0,STARLINK-3980,PAYLOAD,2023-10-14 22:12:59,15.08836896,0.0001993,53.2149,260.0694,87.8742,272.2478,1.7593e-05,-8e-08,0.0,0 STARLINK-3980,1 52611U 22052P   23287.92568428 -.00000008  00000-0  17593-4 0  9990,2 52611  53.2149 260.0694 0001993  87.8742 272.2478 15.08836896 78423,6917.89,95.438,541.134,538.376,0.0
52611.0,STARLINK-3980,PAYLOAD,2023-10-15 02:59:08,15.08834466,0.0002185,53.2167,259.1736,95.5951,264.529,-1.4475e-05,-5.19e-06,0.0,0 STARLINK-3980,1 52611U 22052P   23288.12440615 -.00000519  00000-0 -14475-4 0  9994,2 52611  53.2167 259.1736 0002185  95.5951 264.5290 15.08834466 78822,6917.897,95.438,541.274,538.251,0.0
52611.0,STARLINK-3980,PAYLOAD,2023-10-15 07:45:18,15.08833642,0.0001914,53.216,258.2828,92.588,267.5331,-4.4523e-05,-9.97e-06,0.0,0 STARLINK-3980,1 52611U 22052P   23288.32312697 -.00000997  00000-0 -44523-4 0  9991,2 52611  53.2160 258.2828 0001914  92.5880 267.5331 15.08833642 78480,6917.9,95.438,541.089,538.441,0.0
52611.0,STARLINK-3980,PAYLOAD,2023-10-15 15:42:14,15.08834127,0.0001859,53.2174,256.7956,92.7418,267.3787,4.4806e-05,4.25e-06,0.0,0 STARLINK-3980,1 52611U 22052P   23288.65432883  .00000425  00000-0  44806-4 0  9995,2 52611  53.2174 256.7956 0001859  92.7418 267.3787 15.08834127 78535,6917.898,95.438,541.049,538.477,0.0
52611.0,STARLINK-3980,PAYLOAD,2023-10-16 02:49:55,15.08846834,0.0001544,53.2154,254.7138,94.2749,265.842,0.00032058,4.819e-05,0.0,0 STARLINK-3980,1 52611U 22052P   23289.11800419  .00004819  00000-0  32058-3 0  9997,2 52611  53.2154 254.7138 0001544  94.2749 265.8420 15.08846834 78971,6917.86,95.437,540.793,538.656,0.0
52611.0,STARLINK-3980,PAYLOAD,2023-10-16 07:36:04,15.08854092,0.0001567,53.2156,253.8211,101.9364,258.1804,0.00062814,9.727e-05,0.0,0 STARLINK-3980,1 52611U 22052P   23289.31672311  .00009727  00000-0  62814-3 0  9993,2 52611  53.2156 253.8211 0001567 101.9364 258.1804 15.08854092 78638,6917.837,95.437,540.786,538.618,0.0
52611.0,STARLINK-3980,PAYLOAD,2023-10-18 02:31:29,15.08846396,0.0001374,53.2158,245.7967,81.5426,278.5722,0.00014938,2.091e-05,0.0,0 STARLINK-3980,1 52611U 22052P   23291.10520479  .00002091  00000-0  14938-3 0  9991,2 52611  53.2158 245.7967 0001374  81.5426 278.5722 15.08846396 79270,6917.861,95.437,540.676,538.775,0.0
52611.0,STARLINK-3980,PAYLOAD,2023-10-18 13:39:11,15.08846486,0.0001297,53.2157,243.7132,95.8026,264.3114,0.00015363,2.158e-05,0.0,0 STARLINK-3980,1 52611U 22052P   23291.56888155  .00002158  00000-0  15363-3 0  9996,2 52611  53.2157 243.7132 0001297  95.8026 264.3114 15.08846486 78973,6917.861,95.437,540.623,538.828,0.0
52611.0,STARLINK-3980,PAYLOAD,2023-10-19 03:57:39,15.0884195,0.0001193,53.2159,241.0387,97.4227,262.69,9.9207e-05,1.291e-05,0.0,0 STARLINK-3980,1 52611U 22052P   23292.16504432  .00001291  00000-0  99207-4 0  9993,2 52611  53.2159 241.0387 0001193  97.4227 262.6900 15.08841950 79431,6917.874,95.437,540.565,538.914,0.0
52611.0,STARLINK-3980,PAYLOAD,2023-10-20 05:23:49,15.08858255,0.0001407,53.217,236.2826,103.4387,256.6762,0.00016438,2.33e-05,0.0,0 STARLINK-3980,1 52611U 22052P   23293.22487483  .00002330  00000-0  16438-3 0  9996,2 52611  53.2170 236.2826 0001407 103.4387 256.6762 15.08858255 79593,6917.825,95.436,540.663,538.716,0.0
52611.0,STARLINK-3980,PAYLOAD,2023-10-20 19:42:18,15.08833955,0.000178,53.2168,233.6049,88.3658,271.7538,8.238e-06,-1.57e-06,0.0,0 STARLINK-3980,1 52611U 22052P   23293.82105042 -.00000157  00000-0  82380-5 0  9997,2 52611  53.2168 233.6049 0001780  88.3658 271.7538 15.08833955 79683,6917.899,95.438,540.995,538.532,0.0
